{"fetched_at":"2026-04-03T05:46:27Z","count":9232,"tles":[{"name":"OKEAN-3","line1":"1 21397U 91039A   26092.08433591  .00003279  00000+0  22927-3 0  9991","line2":"2 21397  82.5152 314.1748 0012600 250.4850 109.5016 15.04941652868559","category":"Other"},{"name":"SL-16 R/B","line1":"1 22285U 92093B   26092.06060963  .00000006  00000+0  27628-4 0  9995","line2":"2 22285  71.0225 315.2065 0006606 271.2950  88.7416 14.15455906716462","category":"Other"},{"name":"SL-8 R/B","line1":"1 21938U 92020B   26092.26205056  .00000043  00000+0  28885-4 0  9992","line2":"2 21938  82.9295 136.2586 0027936 229.9624 202.6910 13.75550671704373","category":"Other"},{"name":"COSMOS 2151","line1":"1 21422U 91042A   26092.29567652  .00002955  00000+0  23402-3 0  9992","line2":"2 21422  82.4953  60.8981 0011892 348.5597  11.5355 15.00211624866730","category":"Other"},{"name":"COSMOS 2228","line1":"1 22286U 92094A   26092.31189380  .00003297  00000+0  28131-3 0  9994","line2":"2 22286  82.5195 214.6932 0017118 218.7549 141.2447 14.97319336779599","category":"Other"},{"name":"SL-14 R/B","line1":"1 21423U 91042B   26092.32407657  .00000665  00000+0  81000-4 0  9990","line2":"2 21423  82.4958 198.0253 0017591 158.9519 201.2423 14.81854521856573","category":"Other"},{"name":"USA 81","line1":"1 21949U 92023A   26092.34050965  .00000235  00000+0  79454-4 0  9994","line2":"2 21949  85.0041 117.7912 0001604  69.1320 291.0045 14.32375900 98175","category":"Military"},{"name":"SL-8 R/B","line1":"1 21088U 91006B   26092.30582104  .00000141  00000+0  12656-3 0  9995","line2":"2 21088  82.9438 152.4877 0021557 332.3456  98.5803 13.77498211767326","category":"Other"},{"name":"COSMOS 2219","line1":"1 22219U 92076A   26092.14750838 -.00000187  00000+0 -73154-4 0  9996","line2":"2 22219  71.0611 329.0350 0017736 171.8455 188.2960 14.14089407721698","category":"Other"},{"name":"SL-16 R/B","line1":"1 22566U 93016B   26092.31541345  .00000272  00000+0  16382-3 0  9998","line2":"2 22566  71.0074 165.5639 0012358 283.7789  76.1958 14.15307175705518","category":"Other"},{"name":"SL-16 R/B","line1":"1 22220U 92076B   26092.35083357 -.00000172  00000+0 -62065-4 0  9999","line2":"2 22220  70.9989 138.5354 0010836  52.6043  25.7992 14.16862987725188","category":"Other"},{"name":"INTERCOSMOS 25","line1":"1 21819U 91086A   26092.26573794  .00002383  00000+0  46119-3 0  9996","line2":"2 21819  82.6001 295.7541 1486396  66.1370 308.8166 12.12082666499540","category":"Other"},{"name":"ERS-1","line1":"1 21574U 91050A   26092.05289769  .00000371  00000+0  13300-3 0  9999","line2":"2 21574  98.7861 110.8732 0032854 131.7509 228.6495 14.39467303819093","category":"Other"},{"name":"COSMOS 2242","line1":"1 22626U 93024A   26092.17063093  .00003538  00000+0  30736-3 0  9994","line2":"2 22626  82.5170 244.2503 0015348 222.7954 137.2074 14.96656591783908","category":"Other"},{"name":"COSMOS 2221","line1":"1 22236U 92080A   26092.17760117  .00003167  00000+0  27736-3 0  9997","line2":"2 22236  82.5008 256.5747 0015653 112.0151 248.2736 14.96304755784305","category":"Other"},{"name":"SL-8 R/B","line1":"1 21876U 92008B   26092.35486667  .00000019  00000+0  36169-5 0  9996","line2":"2 21876  82.9239 250.1695 0035854  69.5311 351.7254 13.75969779712670","category":"Other"},{"name":"ARIANE 40 R/B","line1":"1 21610U 91050F   26092.11761656  .00000350  00000+0  11711-3 0  9998","line2":"2 21610  98.1963 143.4693 0003298  27.2546 332.8818 14.42910740822373","category":"Other"}]}