[{"OBJECT_NAME":"SL-8 R/B","OBJECT_ID":"1991-006B","EPOCH":"2026-04-02T07:20:22.937856","MEAN_MOTION":13.77498211,"ECCENTRICITY":0.00215576,"INCLINATION":82.9438,"RA_OF_ASC_NODE":152.4877,"ARG_OF_PERICENTER":332.3456,"MEAN_ANOMALY":98.5803,"EPHEMERIS_TYPE":0,"CLASSIFICATION_TYPE":"U","NORAD_CAT_ID":21088,"ELEMENT_SET_NO":999,"REV_AT_EPOCH":76732,"BSTAR":0.00012656499,"MEAN_MOTION_DOT":1.41e-6,"MEAN_MOTION_DDOT":0},{"OBJECT_NAME":"OKEAN-3","OBJECT_ID":"1991-039A","EPOCH":"2026-04-02T02:01:26.622624","MEAN_MOTION":15.04941652,"ECCENTRICITY":0.00126002,"INCLINATION":82.5152,"RA_OF_ASC_NODE":314.1748,"ARG_OF_PERICENTER":250.485,"MEAN_ANOMALY":109.5016,"EPHEMERIS_TYPE":0,"CLASSIFICATION_TYPE":"U","NORAD_CAT_ID":21397,"ELEMENT_SET_NO":999,"REV_AT_EPOCH":86855,"BSTAR":0.00022926623,"MEAN_MOTION_DOT":3.279e-5,"MEAN_MOTION_DDOT":0},{"OBJECT_NAME":"COSMOS 2151","OBJECT_ID":"1991-042A","EPOCH":"2026-04-02T07:05:46.451328","MEAN_MOTION":15.00211624,"ECCENTRICITY":0.00118923,"INCLINATION":82.4953,"RA_OF_ASC_NODE":60.8981,"ARG_OF_PERICENTER":348.5597,"MEAN_ANOMALY":11.5355,"EPHEMERIS_TYPE":0,"CLASSIFICATION_TYPE":"U","NORAD_CAT_ID":21422,"ELEMENT_SET_NO":999,"REV_AT_EPOCH":86673,"BSTAR":0.00023402141,"MEAN_MOTION_DOT":2.955e-5,"MEAN_MOTION_DDOT":0},{"OBJECT_NAME":"SL-14 R/B","OBJECT_ID":"1991-042B","EPOCH":"2026-04-02T07:46:40.215648","MEAN_MOTION":14.81854521,"ECCENTRICITY":0.00175919,"INCLINATION":82.4958,"RA_OF_ASC_NODE":198.0253,"ARG_OF_PERICENTER":158.9519,"MEAN_ANOMALY":201.2423,"EPHEMERIS_TYPE":0,"CLASSIFICATION_TYPE":"U","NORAD_CAT_ID":21423,"ELEMENT_SET_NO":999,"REV_AT_EPOCH":85657,"BSTAR":8.1e-5,"MEAN_MOTION_DOT":6.65e-6,"MEAN_MOTION_DDOT":0},{"OBJECT_NAME":"ERS-1","OBJECT_ID":"1991-050A","EPOCH":"2026-04-02T01:16:10.360416","MEAN_MOTION":14.39467303,"ECCENTRICITY":0.00328541,"INCLINATION":98.7861,"RA_OF_ASC_NODE":110.8732,"ARG_OF_PERICENTER":131.7509,"MEAN_ANOMALY":228.6495,"EPHEMERIS_TYPE":0,"CLASSIFICATION_TYPE":"U","NORAD_CAT_ID":21574,"ELEMENT_SET_NO":999,"REV_AT_EPOCH":81909,"BSTAR":0.00013300085,"MEAN_MOTION_DOT":3.71e-6,"MEAN_MOTION_DDOT":0},{"OBJECT_NAME":"ARIANE 40 R/B","OBJECT_ID":"1991-050F","EPOCH":"2026-04-02T02:49:22.070784","MEAN_MOTION":14.4291074,"ECCENTRICITY":0.00032984,"INCLINATION":98.1963,"RA_OF_ASC_NODE":143.4693,"ARG_OF_PERICENTER":27.2546,"MEAN_ANOMALY":332.8818,"EPHEMERIS_TYPE":0,"CLASSIFICATION_TYPE":"U","NORAD_CAT_ID":21610,"ELEMENT_SET_NO":999,"REV_AT_EPOCH":82237,"BSTAR":0.00011710887,"MEAN_MOTION_DOT":3.5e-6,"MEAN_MOTION_DDOT":0},{"OBJECT_NAME":"INTERCOSMOS 25","OBJECT_ID":"1991-086A","EPOCH":"2026-04-02T06:22:39.758016","MEAN_MOTION":12.12082666,"ECCENTRICITY":0.14863965,"INCLINATION":82.6001,"RA_OF_ASC_NODE":295.7541,"ARG_OF_PERICENTER":66.137,"MEAN_ANOMALY":308.8166,"EPHEMERIS_TYPE":0,"CLASSIFICATION_TYPE":"U","NORAD_CAT_ID":21819,"ELEMENT_SET_NO":999,"REV_AT_EPOCH":49954,"BSTAR":0.00046118951,"MEAN_MOTION_DOT":2.383e-5,"MEAN_MOTION_DDOT":0},{"OBJECT_NAME":"SL-8 R/B","OBJECT_ID":"1992-008B","EPOCH":"2026-04-02T08:31:00.480288","MEAN_MOTION":13.75969779,"ECCENTRICITY":0.00358547,"INCLINATION":82.9239,"RA_OF_ASC_NODE":250.1695,"ARG_OF_PERICENTER":69.5311,"MEAN_ANOMALY":351.7254,"EPHEMERIS_TYPE":0,"CLASSIFICATION_TYPE":"U","NORAD_CAT_ID":21876,"ELEMENT_SET_NO":999,"REV_AT_EPOCH":71267,"BSTAR":3.616902e-6,"MEAN_MOTION_DOT":1.9e-7,"MEAN_MOTION_DDOT":0},{"OBJECT_NAME":"SL-8 R/B","OBJECT_ID":"1992-020B","EPOCH":"2026-04-02T06:17:21.168384","MEAN_MOTION":13.75550671,"ECCENTRICITY":0.00279363,"INCLINATION":82.9295,"RA_OF_ASC_NODE":136.2586,"ARG_OF_PERICENTER":229.9624,"MEAN_ANOMALY":202.691,"EPHEMERIS_TYPE":0,"CLASSIFICATION_TYPE":"U","NORAD_CAT_ID":21938,"ELEMENT_SET_NO":999,"REV_AT_EPOCH":70437,"BSTAR":2.8884586e-5,"MEAN_MOTION_DOT":4.3e-7,"MEAN_MOTION_DDOT":0},{"OBJECT_NAME":"USA 81","OBJECT_ID":"1992-023A","EPOCH":"2026-04-02T08:10:20.033760","MEAN_MOTION":14.323759,"ECCENTRICITY":0.00016049,"INCLINATION":85.0041,"RA_OF_ASC_NODE":117.7912,"ARG_OF_PERICENTER":69.132,"MEAN_ANOMALY":291.0045,"EPHEMERIS_TYPE":0,"CLASSIFICATION_TYPE":"U","NORAD_CAT_ID":21949,"ELEMENT_SET_NO":999,"REV_AT_EPOCH":9817,"BSTAR":7.9453861e-5,"MEAN_MOTION_DOT":2.35e-6,"MEAN_MOTION_DDOT":0},{"OBJECT_NAME":"COSMOS 2219","OBJECT_ID":"1992-076A","EPOCH":"2026-04-02T03:32:24.724032","MEAN_MOTION":14.14089407,"ECCENTRICITY":0.00177364,"INCLINATION":71.0611,"RA_OF_ASC_NODE":329.035,"ARG_OF_PERICENTER":171.8455,"MEAN_ANOMALY":188.296,"EPHEMERIS_TYPE":0,"CLASSIFICATION_TYPE":"U","NORAD_CAT_ID":22219,"ELEMENT_SET_NO":999,"REV_AT_EPOCH":72169,"BSTAR":-7.3153861e-5,"MEAN_MOTION_DOT":-1.87e-6,"MEAN_MOTION_DDOT":0},{"OBJECT_NAME":"SL-16 R/B","OBJECT_ID":"1992-076B","EPOCH":"2026-04-02T08:25:12.020448","MEAN_MOTION":14.16862987,"ECCENTRICITY":0.00108368,"INCLINATION":70.9989,"RA_OF_ASC_NODE":138.5354,"ARG_OF_PERICENTER":52.6043,"MEAN_ANOMALY":25.7992,"EPHEMERIS_TYPE":0,"CLASSIFICATION_TYPE":"U","NORAD_CAT_ID":22220,"ELEMENT_SET_NO":999,"REV_AT_EPOCH":72518,"BSTAR":-6.2065276e-5,"MEAN_MOTION_DOT":-1.72e-6,"MEAN_MOTION_DDOT":0},{"OBJECT_NAME":"COSMOS 2221","OBJECT_ID":"1992-080A","EPOCH":"2026-04-02T04:15:44.741088","MEAN_MOTION":14.96304755,"ECCENTRICITY":0.00156535,"INCLINATION":82.5008,"RA_OF_ASC_NODE":256.5747,"ARG_OF_PERICENTER":112.0151,"MEAN_ANOMALY":248.2736,"EPHEMERIS_TYPE":0,"CLASSIFICATION_TYPE":"U","NORAD_CAT_ID":22236,"ELEMENT_SET_NO":999,"REV_AT_EPOCH":78430,"BSTAR":0.00027735765,"MEAN_MOTION_DOT":3.167e-5,"MEAN_MOTION_DDOT":0},{"OBJECT_NAME":"SL-16 R/B","OBJECT_ID":"1992-093B","EPOCH":"2026-04-02T01:27:16.672032","MEAN_MOTION":14.15455906,"ECCENTRICITY":0.00066061,"INCLINATION":71.0225,"RA_OF_ASC_NODE":315.2065,"ARG_OF_PERICENTER":271.295,"MEAN_ANOMALY":88.7416,"EPHEMERIS_TYPE":0,"CLASSIFICATION_TYPE":"U","NORAD_CAT_ID":22285,"ELEMENT_SET_NO":999,"REV_AT_EPOCH":71646,"BSTAR":2.7628465e-5,"MEAN_MOTION_DOT":6.0e-8,"MEAN_MOTION_DDOT":0},{"OBJECT_NAME":"COSMOS 2228","OBJECT_ID":"1992-094A","EPOCH":"2026-04-02T07:29:07.624320","MEAN_MOTION":14.97319336,"ECCENTRICITY":0.00171185,"INCLINATION":82.5195,"RA_OF_ASC_NODE":214.6932,"ARG_OF_PERICENTER":218.7549,"MEAN_ANOMALY":141.2447,"EPHEMERIS_TYPE":0,"CLASSIFICATION_TYPE":"U","NORAD_CAT_ID":22286,"ELEMENT_SET_NO":999,"REV_AT_EPOCH":77959,"BSTAR":0.00028131435,"MEAN_MOTION_DOT":3.297e-5,"MEAN_MOTION_DDOT":0},{"OBJECT_NAME":"SL-16 R/B","OBJECT_ID":"1993-016B","EPOCH":"2026-04-02T07:34:11.722080","MEAN_MOTION":14.15307175,"ECCENTRICITY":0.00123589,"INCLINATION":71.0074,"RA_OF_ASC_NODE":165.5639,"ARG_OF_PERICENTER":283.7789,"MEAN_ANOMALY":76.1958,"EPHEMERIS_TYPE":0,"CLASSIFICATION_TYPE":"U","NORAD_CAT_ID":22566,"ELEMENT_SET_NO":999,"REV_AT_EPOCH":70551,"BSTAR":0.00016381571,"MEAN_MOTION_DOT":2.72e-6,"MEAN_MOTION_DDOT":0},{"OBJECT_NAME":"COSMOS 2242","OBJECT_ID":"1993-024A","EPOCH":"2026-04-02T04:05:42.512352","MEAN_MOTION":14.96656591,"ECCENTRICITY":0.0015348,"INCLINATION":82.517,"RA_OF_ASC_NODE":244.2503,"ARG_OF_PERICENTER":222.7954,"MEAN_ANOMALY":137.2074,"EPHEMERIS_TYPE":0,"CLASSIFICATION_TYPE":"U","NORAD_CAT_ID":22626,"ELEMENT_SET_NO":999,"REV_AT_EPOCH":78390,"BSTAR":0.00030736461,"MEAN_MOTION_DOT":3.538e-5,"MEAN_MOTION_DDOT":0}]
